OBJECT_NAME,OBJECT_ID,EPOCH,MEAN_MOTION,ECCENTRICITY,INCLINATION,RA_OF_ASC_NODE,ARG_OF_PERICENTER,MEAN_ANOMALY,EPHEMERIS_TYPE,CLASSIFICATION_TYPE,NORAD_CAT_ID,ELEMENT_SET_NO,REV_AT_EPOCH,BSTAR,MEAN_MOTION_DOT,MEAN_MOTION_DDOT
IRIDIUM 154,2018-061F,2026-07-21T13:23:06.523296,14.34217486,.00023113,86.3938,42.4290,88.7919,271.3542,0,U,43574,999,41833,.1756948E-5,.25E-6,0
IRIDIUM 163,2018-061G,2026-07-21T12:55:42.458304,14.34218286,.00021093,86.3935,42.3511,87.1663,272.9774,0,U,43575,999,41830,.33379223E-4,.113E-5,0
IRIDIUM 156,2018-061H,2026-07-21T02:16:22.399680,14.34217326,.00021906,86.3936,42.5444,93.4013,266.7433,0,U,43576,999,41823,.42785523E-4,.14E-5,0
IRIDIUM 164,2018-061J,2026-07-21T13:32:14.495424,14.34217613,.00022137,86.3933,42.3887,88.2617,271.8832,0,U,43577,999,41834,-.5980819E-5,.3E-7,0
IRIDIUM 159,2018-061K,2026-07-21T12:46:34.448160,14.34217524,.00019812,86.3931,42.3382,86.7100,273.4322,0,U,43578,999,41830,-.769927E-6,.18E-6,0
IRIDIUM 180,2019-002A,2026-07-21T09:24:54.983520,14.34217275,.00020436,86.3995,339.3000,91.2586,268.8844,0,U,43922,999,39389,-.16993467E-4,-.28E-6,0
IRIDIUM 176,2019-002B,2026-07-21T14:50:58.449120,14.72255008,.00023442,86.6120,339.1438,91.9007,268.2479,0,U,43923,999,40431,.88422007E-4,.582E-5,0
IRIDIUM 168,2019-002C,2026-07-21T15:57:38.984256,14.34218579,.0002201,86.4002,339.2640,91.8048,268.3400,0,U,43924,999,39391,.59818015E-4,.187E-5,0
IRIDIUM 173,2019-002D,2026-07-21T15:39:22.914720,14.34217668,.00020289,86.3994,339.1570,93.0412,267.1016,0,U,43925,999,39389,-.14225571E-4,-.2E-6,0
IRIDIUM 169,2019-002E,2026-07-21T11:22:03.012672,14.38600315,.00020442,86.4234,10.8549,104.8033,255.3392,0,U,43926,999,39515,.40937563E-4,.145E-5,0
IRIDIUM 172,2019-002F,2026-07-21T15:30:14.933088,14.34218028,.00021935,86.3998,339.1675,92.0490,268.0957,0,U,43927,999,39390,.1009375E-4,.48E-6,0
IRIDIUM 175,2019-002G,2026-07-21T05:45:29.863008,14.43629333,.00055321,86.4504,276.2874,103.7291,256.4526,0,U,43928,999,40389,.53807984E-4,.203E-5,0
IRIDIUM 171,2019-002H,2026-07-21T08:20:59.035200,14.34217745,.0002268,86.4008,339.6019,95.4895,264.6559,0,U,43929,999,39385,.4091276E-4,.134E-5,0
IRIDIUM 170,2019-002J,2026-07-21T08:28:21.715104,14.72255073,.00021963,86.6118,339.2569,89.3059,270.8410,0,U,43930,999,40428,.8240838E-4,.544E-5,0
IRIDIUM 167,2019-002K,2026-07-21T14:53:42.969408,14.34217541,.00022782,86.3994,339.2009,97.5237,262.6218,0,U,43931,999,39389,-.5442973E-5,.5E-7,0
IRIDIUM 181,2023-068S,2026-07-21T11:51:07.441632,14.43309515,.00023557,86.4475,42.4428,83.7424,276.4045,0,U,56726,999,16738,.63166541E-4,.233E-5,0
IRIDIUM 177,2023-068T,2026-07-21T07:54:37.973952,14.80031332,.00022469,86.1987,312.5831,97.5946,262.5530,0,U,56727,999,17141,.95301146E-4,.747E-5,0
IRIDIUM 174,2023-068U,2026-07-21T08:10:24.519648,14.71989794,.00019467,86.6087,339.4106,42.6651,317.4717,0,U,56728,999,17104,.82116202E-4,.539E-5,0
IRIDIUM 178,2023-068V,2026-07-21T10:53:32.947584,14.80024258,.00022471,86.6542,11.0384,92.1384,268.0095,0,U,56729,999,17143,.77719294E-4,.614E-5,0
IRIDIUM 179,2023-068W,2026-07-21T01:01:41.295648,14.80024497,.00023931,86.6770,20.2889,94.1429,266.0066,0,U,56730,999,17137,.23242475E-4,.202E-5,0
